{
    "week": 287,
    "satellites": [
        {
            "Name": "COSMOS 2433 (720)",
            "Line1": "1 32275U 07052A   24284.65656228 -.00000035  00000+0  00000+0 0  9990",
            "Line2": "2 32275  65.8884 336.5387 0005443 237.4931 122.5251  2.13104062132003",
            "SatelliteNumber": "32275",
            "Classification": "U",
            "LaunchYear": "07",
            "LaunchNumber": "052",
            "PieceOfLaunch": "A",
            "EpochYear": "24",
            "EpochDay": 284.65656228,
            "FirstDerivativeMeanMotion": -3.5e-07,
            "SecondDerivativeMeanMotion": "00000+0",
            "BSTAR": "00000+0",
            "SetNumber": "999",
            "Inclination": 65.8884,
            "RAAN": 336.5387,
            "Eccentricity": 0.0005443,
            "ArgumentOfPerigee": 237.4931,
            "MeanAnomaly": 122.5251,
            "MeanMotion": 2.13104062,
            "RevolutionNumber": "13200"
        },
        {
            "Name": "COSMOS 2432 (719)",
            "Line1": "1 32276U 07052B   24284.89921640 -.00000035  00000+0  00000+0 0  9990",
            "Line2": "2 32276  65.9034 336.6467 0009837 309.2167 182.8140  2.13103105132005",
            "SatelliteNumber": "32276",
            "Classification": "U",
            "LaunchYear": "07",
            "LaunchNumber": "052",
            "PieceOfLaunch": "B",
            "EpochYear": "24",
            "EpochDay": 284.8992164,
            "FirstDerivativeMeanMotion": -3.5e-07,
            "SecondDerivativeMeanMotion": "00000+0",
            "BSTAR": "00000+0",
            "SetNumber": "999",
            "Inclination": 65.9034,
            "RAAN": 336.6467,
            "Eccentricity": 0.0009837,
            "ArgumentOfPerigee": 309.2167,
            "MeanAnomaly": 182.814,
            "MeanMotion": 2.13103105,
            "RevolutionNumber": "13200"
        },
        {
            "Name": "COSMOS 2434 (721)",
            "Line1": "1 32393U 07065A   24285.52237253  .00000009  00000+0  00000+0 0  9995",
            "Line2": "2 32393  64.3183 212.6350 0001985  62.9327 133.4661  2.13101258130728",
            "SatelliteNumber": "32393",
            "Classification": "U",
            "LaunchYear": "07",
            "LaunchNumber": "065",
            "PieceOfLaunch": "A",
            "EpochYear": "24",
            "EpochDay": 285.52237253,
            "FirstDerivativeMeanMotion": 9e-08,
            "SecondDerivativeMeanMotion": "00000+0",
            "BSTAR": "00000+0",
            "SetNumber": "999",
            "Inclination": 64.3183,
            "RAAN": 212.635,
            "Eccentricity": 0.0001985,
            "ArgumentOfPerigee": 62.9327,
            "MeanAnomaly": 133.4661,
            "MeanMotion": 2.13101258,
            "RevolutionNumber": "13072"
        },
        {
            "Name": "COSMOS 2436 (723)",
            "Line1": "1 32395U 07065C   24285.05940575  .00000013  00000+0  00000+0 0  9998",
            "Line2": "2 32395  64.3268 212.7164 0016745 359.7062 336.4423  2.13100004130641",
            "SatelliteNumber": "32395",
            "Classification": "U",
            "LaunchYear": "07",
            "LaunchNumber": "065",
            "PieceOfLaunch": "C",
            "EpochYear": "24",
            "EpochDay": 285.05940575,
            "FirstDerivativeMeanMotion": 1.3e-07,
            "SecondDerivativeMeanMotion": "00000+0",
            "BSTAR": "00000+0",
            "SetNumber": "999",
            "Inclination": 64.3268,
            "RAAN": 212.7164,
            "Eccentricity": 0.0016745,
            "ArgumentOfPerigee": 359.7062,
            "MeanAnomaly": 336.4423,
            "MeanMotion": 2.13100004,
            "RevolutionNumber": "13064"
        },
        {
            "Name": "COSMOS 2456 (730)",
            "Line1": "1 36111U 09070A   24285.52785728  .00000081  00000+0  00000+0 0  9990",
            "Line2": "2 36111  64.6688  91.9654 0001358 334.1014  20.7685  2.13103718115381",
            "SatelliteNumber": "36111",
            "Classification": "U",
            "LaunchYear": "09",
            "LaunchNumber": "070",
            "PieceOfLaunch": "A",
            "EpochYear": "24",
            "EpochDay": 285.52785728,
            "FirstDerivativeMeanMotion": 8.1e-07,
            "SecondDerivativeMeanMotion": "00000+0",
            "BSTAR": "00000+0",
            "SetNumber": "999",
            "Inclination": 64.6688,
            "RAAN": 91.9654,
            "Eccentricity": 0.0001358,
            "ArgumentOfPerigee": 334.1014,
            "MeanAnomaly": 20.7685,
            "MeanMotion": 2.13103718,
            "RevolutionNumber": "11538"
        },
        {
            "Name": "COSMOS 2457 (733)",
            "Line1": "1 36112U 09070B   24285.11160709  .00000079  00000+0  00000+0 0  9999",
            "Line2": "2 36112  64.6531  91.8356 0006279 143.9614  24.6385  2.13101160115385",
            "SatelliteNumber": "36112",
            "Classification": "U",
            "LaunchYear": "09",
            "LaunchNumber": "070",
            "PieceOfLaunch": "B",
            "EpochYear": "24",
            "EpochDay": 285.11160709,
            "FirstDerivativeMeanMotion": 7.9e-07,
            "SecondDerivativeMeanMotion": "00000+0",
            "BSTAR": "00000+0",
            "SetNumber": "999",
            "Inclination": 64.6531,
            "RAAN": 91.8356,
            "Eccentricity": 0.0006279,
            "ArgumentOfPerigee": 143.9614,
            "MeanAnomaly": 24.6385,
            "MeanMotion": 2.1310116,
            "RevolutionNumber": "11538"
        },
        {
            "Name": "COSMOS 2460 (732)",
            "Line1": "1 36402U 10007C   24284.43613792 -.00000034  00000+0  00000+0 0  9994",
            "Line2": "2 36402  65.7425 335.1915 0002479 237.1315 126.6427  2.13106216113721",
            "SatelliteNumber": "36402",
            "Classification": "U",
            "LaunchYear": "10",
            "LaunchNumber": "007",
            "PieceOfLaunch": "C",
            "EpochYear": "24",
            "EpochDay": 284.43613792,
            "FirstDerivativeMeanMotion": -3.4e-07,
            "SecondDerivativeMeanMotion": "00000+0",
            "BSTAR": "00000+0",
            "SetNumber": "999",
            "Inclination": 65.7425,
            "RAAN": 335.1915,
            "Eccentricity": 0.0002479,
            "ArgumentOfPerigee": 237.1315,
            "MeanAnomaly": 126.6427,
            "MeanMotion": 2.13106216,
            "RevolutionNumber": "11372"
        },
        {
            "Name": "COSMOS 2476 (744)",
            "Line1": "1 37867U 11064A   24282.13243883  .00000058  00000+0  00000+0 0  9994",
            "Line2": "2 37867  64.9381  93.7587 0021884 230.3824 311.5473  2.13101626100612",
            "SatelliteNumber": "37867",
            "Classification": "U",
            "LaunchYear": "11",
            "LaunchNumber": "064",
            "PieceOfLaunch": "A",
            "EpochYear": "24",
            "EpochDay": 282.13243883,
            "FirstDerivativeMeanMotion": 5.8e-07,
            "SecondDerivativeMeanMotion": "00000+0",
            "BSTAR": "00000+0",
            "SetNumber": "999",
            "Inclination": 64.9381,
            "RAAN": 93.7587,
            "Eccentricity": 0.0021884,
            "ArgumentOfPerigee": 230.3824,
            "MeanAnomaly": 311.5473,
            "MeanMotion": 2.13101626,
            "RevolutionNumber": "10061"
        },
        {
            "Name": "COSMOS 2477 (745)",
            "Line1": "1 37868U 11064B   24285.17827238  .00000083  00000+0  00000+0 0  9992",
            "Line2": "2 37868  64.9466  93.7291 0019086 230.4607 306.8187  2.13103028100662",
            "SatelliteNumber": "37868",
            "Classification": "U",
            "LaunchYear": "11",
            "LaunchNumber": "064",
            "PieceOfLaunch": "B",
            "EpochYear": "24",
            "EpochDay": 285.17827238,
            "FirstDerivativeMeanMotion": 8.3e-07,
            "SecondDerivativeMeanMotion": "00000+0",
            "BSTAR": "00000+0",
            "SetNumber": "999",
            "Inclination": 64.9466,
            "RAAN": 93.7291,
            "Eccentricity": 0.0019086,
            "ArgumentOfPerigee": 230.4607,
            "MeanAnomaly": 306.8187,
            "MeanMotion": 2.13103028,
            "RevolutionNumber": "10066"
        },
        {
            "Name": "COSMOS 2475 (743)",
            "Line1": "1 37869U 11064C   24284.28647394  .00000077  00000+0  00000+0 0  9990",
            "Line2": "2 37869  64.9528  93.7752 0023377 247.6552 283.3668  2.13101790100668",
            "SatelliteNumber": "37869",
            "Classification": "U",
            "LaunchYear": "11",
            "LaunchNumber": "064",
            "PieceOfLaunch": "C",
            "EpochYear": "24",
            "EpochDay": 284.28647394,
            "FirstDerivativeMeanMotion": 7.7e-07,
            "SecondDerivativeMeanMotion": "00000+0",
            "BSTAR": "00000+0",
            "SetNumber": "999",
            "Inclination": 64.9528,
            "RAAN": 93.7752,
            "Eccentricity": 0.0023377,
            "ArgumentOfPerigee": 247.6552,
            "MeanAnomaly": 283.3668,
            "MeanMotion": 2.1310179,
            "RevolutionNumber": "10066"
        }
    ]
}